OBJECT_NAME,OBJECT_ID,EPOCH,MEAN_MOTION,ECCENTRICITY,INCLINATION,RA_OF_ASC_NODE,ARG_OF_PERICENTER,MEAN_ANOMALY,EPHEMERIS_TYPE,CLASSIFICATION_TYPE,NORAD_CAT_ID,ELEMENT_SET_NO,REV_AT_EPOCH,BSTAR,MEAN_MOTION_DOT,MEAN_MOTION_DDOT
FENGYUN 1C DEB,1999-025QG,2025-04-06T18:32:56.251392,14.00642177,.0084887,99.0834,154.3678,268.3103,213.7208,0,U,30079,999,93038,.35474E-3,.499E-5,0
FENGYUN 1C DEB,1999-025QH,2025-04-06T22:51:51.018912,14.10547347,.0134151,98.6754,85.7290,50.0656,21.6444,0,U,30080,999,93716,.56781E-3,.1059E-4,0
FENGYUN 1C DEB,1999-025QJ,2025-04-06T22:54:13.216896,13.97998155,.0075616,98.9162,100.2112,308.9553,80.0117,0,U,30081,999,92864,.62439E-3,.865E-5,0
FENGYUN 1C DEB,1999-025QK,2025-04-06T15:32:06.965376,15.02990695,.0087912,98.8312,347.7618,275.0847,145.2033,0,U,30082,999,97524,.17904E-2,.26202E-3,0
FENGYUN 1C DEB,1999-025QP,2025-04-06T15:29:40.879392,14.03504637,.0062328,98.9348,134.9356,111.7581,11.7035,0,U,30086,999,93187,.62014E-3,.945E-5,0
FENGYUN 1C DEB,1999-025QQ,2025-04-06T16:05:10.536576,14.34975395,.0232305,98.4077,135.4052,147.4279,342.0224,0,U,30087,999,95108,.63913E-3,.2421E-4,0
FENGYUN 1C DEB,1999-025QR,2025-04-06T23:22:14.205792,14.35088980,.0202651,98.3349,89.2377,273.9200,151.5794,0,U,30088,999,95089,.76681E-3,.271E-4,0
FENGYUN 1C DEB,1999-025QS,2025-04-06T15:49:12.243072,14.29907967,.0073542,98.9203,356.1886,218.1166,171.5062,0,U,30089,999,94905,.4377E-3,.1114E-4,0
FENGYUN 1C DEB,1999-025QT,2025-04-06T22:49:09.407712,14.28429252,.0059259,99.3884,250.7581,107.3605,14.2127,0,U,30090,999,94703,.12472E-2,.3131E-4,0
FENGYUN 1C DEB,1999-025QV,2025-04-06T22:31:48.592704,14.38112602,.0083734,98.9122,266.4175,267.6322,224.1474,0,U,30092,999,95157,.11187E-2,.3484E-4,0
FENGYUN 1C DEB,1999-025QW,2025-04-06T13:46:07.175424,14.42192848,.0071798,98.8990,320.6649,2.0613,27.5797,0,U,30093,999,95196,.14626E-2,.4922E-4,0
FENGYUN 1C DEB,1999-025QY,2025-04-06T15:13:39.700128,14.73852919,.0188958,99.2368,341.8849,30.7145,330.4958,0,U,30095,999,95642,.25586E-2,.22325E-3,0
FENGYUN 1C DEB,1999-025QZ,2025-04-06T22:07:03.474336,14.31198236,.0079432,99.1661,162.6523,235.7485,123.6155,0,U,30096,999,94972,.5592E-3,.148E-4,0
FENGYUN 1C DEB,1999-025RC,2025-04-06T23:00:18.360576,14.25517818,.0061096,98.5566,175.3657,254.3617,280.9751,0,U,30099,999,94630,.56432E-3,.1317E-4,0
FENGYUN 1C DEB,1999-025RF,2025-04-06T22:27:55.679040,14.21725882,.014281,98.3886,116.9446,9.3353,61.1805,0,U,30102,999,94408,.4622E-3,.1085E-4,0
FENGYUN 1C DEB,1999-025RG,2025-04-06T21:34:02.455392,14.24141519,.006561,99.2171,65.7775,113.3337,302.1796,0,U,30103,999,94362,.1025E-2,.2366E-4,0
FENGYUN 1C DEB,1999-025RH,2025-04-06T13:20:15.815040,14.24803035,.0076193,98.3850,304.9962,121.8013,293.6061,0,U,30104,999,94329,.10367E-2,.2451E-4,0
FENGYUN 1C DEB,1999-025RJ,2025-04-06T22:20:43.944288,14.20761706,.0201614,98.5753,89.8123,78.1931,284.1782,0,U,30105,999,94214,.89292E-3,.2323E-4,0
FENGYUN 1C DEB,1999-025RK,2025-04-06T15:18:45.571680,14.69217999,.006675,98.9394,338.1503,262.9424,118.9043,0,U,30106,999,94857,.5388E-2,.32928E-3,0
FENGYUN 1C DEB,1999-025RL,2025-04-06T14:38:22.960608,14.14317816,.0126625,98.8770,155.3792,266.4354,92.2330,0,U,30107,999,94025,.10978E-3,.181E-5,0
FENGYUN 1C DEB,1999-025RM,2025-04-06T22:48:23.798880,14.16746411,.0198407,98.6411,89.4386,20.2074,7.1369,0,U,30108,999,94061,.10006E-2,.2383E-4,0
FENGYUN 1C DEB,1999-025RN,2025-04-06T23:28:00.389856,14.17010920,.0168189,98.4994,101.1595,233.2775,153.8455,0,U,30109,999,94014,.57897E-3,.1294E-4,0
FENGYUN 1C DEB,1999-025RP,2025-04-06T08:33:39.566880,13.56066447,.0267314,98.8790,229.1515,277.9995,79.0893,0,U,30110,999,90121,.58154E-3,.472E-5,0
FENGYUN 1C DEB,1999-025RR,2025-04-06T21:03:57.486816,14.21109287,.0205126,99.2541,58.2091,97.8557,264.5956,0,U,30112,999,94032,.14752E-2,.3918E-4,0
FENGYUN 1C DEB,1999-025RS,2025-04-06T12:07:13.138752,14.41682739,.004207,99.0594,293.1618,24.8369,4.9061,0,U,30113,999,94299,.44599E-2,.14673E-3,0
FENGYUN 1C DEB,1999-025RT,2025-04-06T22:19:59.251296,14.09422000,.0082649,98.7470,106.3678,106.6241,317.1336,0,U,30114,999,93635,.34957E-3,.588E-5,0
FENGYUN 1C DEB,1999-025RU,2025-04-06T20:18:55.459008,14.18605538,.0069601,98.6427,130.4760,62.0438,350.0941,0,U,30115,999,93784,.19862E-2,.4174E-4,0
FENGYUN 1C DEB,1999-025RV,2025-04-06T21:27:06.696864,14.27158354,.0019811,99.4104,148.8152,338.8437,72.9267,0,U,30116,999,93943,.28074E-2,.6822E-4,0
FENGYUN 1C DEB,1999-025RW,2025-04-06T22:08:34.060416,14.06915702,.016439,98.7877,92.0338,192.1025,198.1874,0,U,30117,999,93476,.41992E-3,.749E-5,0
FENGYUN 1C DEB,1999-025RX,2025-04-06T23:34:24.233088,14.05000297,.0085326,98.8048,108.0181,40.2347,349.6480,0,U,30118,999,93424,.22898E-3,.338E-5,0
FENGYUN 1C DEB,1999-025RY,2025-04-06T19:12:28.087776,14.20383560,.0132925,97.9210,116.3905,310.5116,100.3746,0,U,30119,999,93630,.2699E-2,.6286E-4,0
FENGYUN 1C DEB,1999-025RZ,2025-04-06T20:58:41.708640,14.25215195,.0065665,98.8587,175.9363,214.6456,208.8046,0,U,30120,999,93809,.30912E-2,.7392E-4,0
FENGYUN 1C DEB,1999-025SA,2025-04-06T17:06:26.554176,14.35379976,.0035395,102.1641,15.5833,88.6233,301.7313,0,U,30121,999,93947,.44401E-2,.12787E-3,0
FENGYUN 1C DEB,1999-025SB,2025-04-06T12:28:21.298080,14.80067524,.0063276,95.8917,120.7697,356.5395,165.1921,0,U,30122,999,94191,.88974E-2,.70343E-3,0
FENGYUN 1C DEB,1999-025SC,2025-04-06T22:16:13.067328,14.23615784,.023642,96.9060,90.0376,125.2363,237.1200,0,U,30123,999,93690,.2218E-2,.6721E-4,0
FENGYUN 1C DEB,1999-025SD,2025-04-06T15:08:58.258176,14.13078169,.0146188,99.1511,144.8770,90.0787,28.8449,0,U,30124,999,93381,.20882E-2,.4274E-4,0
FENGYUN 1C DEB,1999-025SE,2025-04-06T18:18:41.976576,14.20248149,.0351136,98.7138,198.0431,347.4440,163.7853,0,U,30125,999,93370,.13586E-2,.5366E-4,0
FENGYUN 1C DEB,1999-025SG,2025-04-06T14:02:31.349184,14.33795841,.0091569,98.2181,324.8793,109.1645,251.9479,0,U,30127,999,93646,.4274E-2,.12435E-3,0
FENGYUN 1C DEB,1999-025SH,2025-04-06T16:02:57.156576,14.40163931,.0120153,96.9860,140.3340,186.2744,304.6948,0,U,30128,999,93705,.45621E-2,.15694E-3,0
FENGYUN 1C DEB,1999-025SJ,2025-04-06T21:31:49.344960,14.01134660,.0189346,98.0139,68.8125,84.1071,331.3866,0,U,30129,999,92979,.68972E-3,.1176E-4,0
FENGYUN 1C DEB,1999-025SL,2025-04-06T19:13:29.093952,14.18234262,.0088046,99.0742,182.4172,150.1321,326.3993,0,U,30131,999,93142,.48313E-2,.10294E-3,0
FENGYUN 1C DEB,1999-025SM,2025-04-06T18:33:42.978240,13.94513838,.0105821,99.5499,41.4663,2.8096,57.2053,0,U,30132,999,92605,.10342E-2,.1398E-4,0
FENGYUN 1C DEB,1999-025SN,2025-04-06T19:09:50.373216,14.05346385,.0086064,98.3189,283.6411,251.7669,119.9814,0,U,30133,999,92866,.2901E-2,.4821E-4,0
FENGYUN 1C DEB,1999-025SP,2025-04-06T14:24:17.159040,14.12855635,.0019484,98.7113,122.5172,174.5036,302.5338,0,U,30134,999,93713,.89505E-3,.1625E-4,0
FENGYUN 1C DEB,1999-025SQ,2025-04-06T17:44:07.785600,14.97285501,.0055976,98.8948,26.6157,82.7508,338.1607,0,U,30135,999,95231,.85369E-2,.103494E-2,0
FENGYUN 1C DEB,1999-025SR,2025-04-06T17:40:38.773632,13.94985171,.0130176,98.5741,7.2735,44.0234,345.0637,0,U,30136,999,92605,.8763E-3,.1226E-4,0
FENGYUN 1C DEB,1999-025ST,2025-04-06T22:30:54.520992,14.18939101,.0022269,98.7787,152.6398,135.7165,39.2230,0,U,30138,999,93857,.1834E-2,.379E-4,0
FENGYUN 1C DEB,1999-025SU,2025-04-05T14:37:51.180096,14.02653253,.0131302,98.3955,318.9127,281.0514,143.3792,0,U,30139,999,92728,.19365E-2,.3184E-4,0
FENGYUN 1C DEB,1999-025SV,2025-04-04T17:02:13.868736,14.19023318,.0038985,98.8390,158.0633,312.2869,178.1997,0,U,30140,999,93567,.21879E-2,.456E-4,0
FENGYUN 1C DEB,1999-025SW,2025-04-06T09:17:37.298400,14.46532341,.0020088,99.0187,1.3477,64.8534,295.4737,0,U,30141,999,94619,.51263E-2,.18511E-3,0
FENGYUN 1C DEB,1999-025SX,2025-04-06T22:05:42.734400,14.08795999,.010257,99.1352,169.0656,286.3061,72.6847,0,U,30142,999,92779,.26498E-2,.4755E-4,0
FENGYUN 1C DEB,1999-025SY,2025-04-06T12:30:00.638208,14.01601962,.0104702,98.7457,290.0890,269.6492,108.4476,0,U,30143,999,92713,.20443E-2,.3205E-4,0
FENGYUN 1C DEB,1999-025SZ,2025-04-06T22:34:58.360800,13.91434312,.012581,98.9988,97.0225,251.1475,172.5756,0,U,30144,999,92366,.89275E-3,.116E-4,0
FENGYUN 1C DEB,1999-025TA,2025-04-06T20:30:34.473888,14.10920177,.0097028,99.2630,197.9320,127.9671,350.6465,0,U,30145,999,92668,.60854E-2,.11381E-3,0
FENGYUN 1C DEB,1999-025TB,2025-04-06T11:39:54.249984,13.86128515,.0180187,98.0143,291.7603,98.2927,324.4667,0,U,30146,999,91950,.12357E-2,.1585E-4,0
FENGYUN 1C DEB,1999-025TD,2025-04-06T07:40:03.720000,13.87984952,.0136054,99.5208,240.1758,144.0675,277.9634,0,U,30148,999,92042,.18215E-2,.2289E-4,0
FENGYUN 1C DEB,1999-025TF,2025-04-06T23:31:50.105856,13.86171560,.0146569,98.9651,242.9649,291.0269,190.2233,0,U,30150,999,91997,.10743E-2,.1305E-4,0
FENGYUN 1C DEB,1999-025TG,2025-04-06T13:20:58.127712,13.83948838,.0162841,99.0705,113.1259,230.5341,253.9614,0,U,30151,999,91784,.10421E-2,.1239E-4,0
FENGYUN 1C DEB,1999-025TH,2025-04-06T20:18:19.458720,13.94832802,.0168496,99.0928,317.9716,48.9297,312.6283,0,U,30152,999,91892,.39002E-2,.5852E-4,0
FENGYUN 1C DEB,1999-025TJ,2025-04-06T20:48:07.240608,13.78203302,.0200966,100.4439,61.8362,280.7196,133.5003,0,U,30153,999,91332,.20325E-2,.2325E-4,0
FENGYUN 1C DEB,1999-025TK,2025-04-04T16:25:18.450048,13.84942135,.0185693,98.4612,160.8570,169.6073,323.2913,0,U,30154,999,91494,.28788E-2,.3683E-4,0
FENGYUN 1C DEB,1999-025TL,2025-04-06T20:26:51.947232,13.72183933,.0243436,99.7541,165.5430,268.2304,89.0949,0,U,30155,999,90435,.52084E-2,.5817E-4,0
FENGYUN 1C DEB,1999-025TM,2025-04-06T22:40:33.915072,13.79714691,.0196982,98.9020,78.2693,211.8813,162.0442,0,U,30156,999,91245,.13312E-2,.155E-4,0
FENGYUN 1C DEB,1999-025TN,2025-04-06T05:32:36.634848,14.41072450,.0039524,98.7133,187.6383,218.7282,170.0598,0,U,30157,999,94460,.52265E-2,.16976E-3,0
FENGYUN 1C DEB,1999-025TR,2025-04-06T21:54:43.918848,13.42437486,.0346539,98.8630,74.9637,38.0683,16.4402,0,U,30160,999,89061,.27844E-2,.2212E-4,0
